[{"OBJECT_NAME":"STARLINK-31183","OBJECT_ID":"2024-005V","EPOCH":"2026-03-09T22:00:01.999584","MEAN_MOTION":15.26709704,"ECCENTRICITY":0.00016508,"INCLINATION":43.0011,"RA_OF_ASC_NODE":218.4644,"ARG_OF_PERICENTER":267.82,"MEAN_ANOMALY":267.9713,"EPHEMERIS_TYPE":0,"CLASSIFICATION_TYPE":"U","NORAD_CAT_ID":58747,"ELEMENT_SET_NO":999,"REV_AT_EPOCH":578,"BSTAR":0.0024044262,"MEAN_MOTION_DOT":0.00064745,"MEAN_MOTION_DDOT":0},{"OBJECT_NAME":"PEGASUS R\/B","OBJECT_ID":"2007-015B","EPOCH":"2026-03-09T10:58:33.801024","MEAN_MOTION":15.26741121,"ECCENTRICITY":0.00105976,"INCLINATION":97.9168,"RA_OF_ASC_NODE":31.3919,"ARG_OF_PERICENTER":317.6341,"MEAN_ANOMALY":42.4077,"EPHEMERIS_TYPE":0,"CLASSIFICATION_TYPE":"U","NORAD_CAT_ID":31305,"ELEMENT_SET_NO":999,"REV_AT_EPOCH":3383,"BSTAR":0.00044093522,"MEAN_MOTION_DOT":0.00011537,"MEAN_MOTION_DDOT":0}]
